{
  "type": "FeatureCollection",
  "features": [
    {
      "type": "Feature",
      "properties": {
        "norad_id": 66632,
        "name": "STARLINK-35973",
        "group": "last-30-days",
        "lat": 7.640422597997434,
        "lon": 15.31312220325972,
        "alt_km": 379.9767477088217,
        "timestamp": "2025-12-09T20:37:08.056929+00:00",
        "meta_object_name": "STARLINK-35973",
        "meta_object_id": "2025-271R",
        "meta_epoch": "2025-12-09T14:00:01.999872",
        "meta_mean_motion": 15.63704471,
        "meta_eccentricity": 9.029e-05,
        "meta_inclination": 53.1594,
        "meta_ra_of_asc_node": 202.4319,
        "meta_arg_of_pericenter": 104.3799,
        "meta_mean_anomaly": 313.2871,
        "meta_ephemeris_type": 0,
        "meta_classification_type": "U",
        "meta_norad_cat_id": 66632,
        "meta_element_set_no": 999,
        "meta_rev_at_epoch": 367,
        "meta_bstar": -0.023763292,
        "meta_mean_motion_dot": -0.01987715,
        "meta_mean_motion_ddot": 0,
        "tle_line1": "1 66632U 25271R   25343.58335648 -.01987715  00000+0 -23763-1 0  9990",
        "tle_line2": "2 66632  53.1594 202.4319 0000902 104.3799 313.2871 15.63704471  3676"
      },
      "geometry": {
        "type": "Point",
        "coordinates": [
          15.31312220325972,
          7.640422597997434
        ]
      }
    },
    {
      "type": "Feature",
      "properties": {
        "norad_id": 66633,
        "name": "STARLINK-35948",
        "group": "last-30-days",
        "lat": 6.115092463198812,
        "lon": 16.47311953729566,
        "alt_km": 380.1762161868537,
        "timestamp": "2025-12-09T20:37:08.056939+00:00",
        "meta_object_name": "STARLINK-35948",
        "meta_object_id": "2025-271S",
        "meta_epoch": "2025-12-09T14:00:01.999872",
        "meta_mean_motion": 15.63697462,
        "meta_eccentricity": 8.862e-05,
        "meta_inclination": 53.1593,
        "meta_ra_of_asc_node": 202.4268,
        "meta_arg_of_pericenter": 107.7513,
        "meta_mean_anomaly": 311.8322,
        "meta_ephemeris_type": 0,
        "meta_classification_type": "U",
        "meta_norad_cat_id": 66633,
        "meta_element_set_no": 999,
        "meta_rev_at_epoch": 373,
        "meta_bstar": -0.023599464,
        "meta_mean_motion_dot": -0.01975171,
        "meta_mean_motion_ddot": 0,
        "tle_line1": "1 66633U 25271S   25343.58335648 -.01975171  00000+0 -23599-1 0  9991",
        "tle_line2": "2 66633  53.1593 202.4268 0000886 107.7513 311.8322 15.63697462  3734"
      },
      "geometry": {
        "type": "Point",
        "coordinates": [
          16.47311953729566,
          6.115092463198812
        ]
      }
    },
    {
      "type": "Feature",
      "properties": {
        "norad_id": 66634,
        "name": "STARLINK-35967",
        "group": "last-30-days",
        "lat": 4.58213610173342,
        "lon": 17.631391520688044,
        "alt_km": 380.4614234108167,
        "timestamp": "2025-12-09T20:37:08.056951+00:00",
        "meta_object_name": "STARLINK-35967",
        "meta_object_id": "2025-271T",
        "meta_epoch": "2025-12-09T14:00:01.999872",
        "meta_mean_motion": 15.63703352,
        "meta_eccentricity": 9.319e-05,
        "meta_inclination": 53.1594,
        "meta_ra_of_asc_node": 202.4227,
        "meta_arg_of_pericenter": 103.8876,
        "meta_mean_anomaly": 317.6123,
        "meta_ephemeris_type": 0,
        "meta_classification_type": "U",
        "meta_norad_cat_id": 66634,
        "meta_element_set_no": 999,
        "meta_rev_at_epoch": 366,
        "meta_bstar": -0.02372052,
        "meta_mean_motion_dot": -0.01984515,
        "meta_mean_motion_ddot": 0,
        "tle_line1": "1 66634U 25271T   25343.58335648 -.01984515  00000+0 -23721-1 0  9991",
        "tle_line2": "2 66634  53.1594 202.4227 0000931 103.8876 317.6123 15.63703352  3662"
      },
      "geometry": {
        "type": "Point",
        "coordinates": [
          17.631391520688044,
          4.58213610173342
        ]
      }
    },
    {
      "type": "Feature",
      "properties": {
        "norad_id": 66635,
        "name": "STARLINK-35955",
        "group": "last-30-days",
        "lat": 3.050645436056053,
        "lon": 18.782422776689927,
        "alt_km": 380.658945200923,
        "timestamp": "2025-12-09T20:37:08.056963+00:00",
        "meta_object_name": "STARLINK-35955",
        "meta_object_id": "2025-271U",
        "meta_epoch": "2025-12-09T14:00:01.999872",
        "meta_mean_motion": 15.63706666,
        "meta_eccentricity": 9.104e-05,
        "meta_inclination": 53.1591,
        "meta_ra_of_asc_node": 202.4189,
        "meta_arg_of_pericenter": 106.9916,
        "meta_mean_anomaly": 316.4227,
        "meta_ephemeris_type": 0,
        "meta_classification_type": "U",
        "meta_norad_cat_id": 66635,
        "meta_element_set_no": 999,
        "meta_rev_at_epoch": 373,
        "meta_bstar": -0.023774597,
        "meta_mean_motion_dot": -0.01988704,
        "meta_mean_motion_ddot": 0,
        "tle_line1": "1 66635U 25271U   25343.58335648 -.01988704  00000+0 -23775-1 0  9995",
        "tle_line2": "2 66635  53.1591 202.4189 0000910 106.9916 316.4227 15.63706666  3734"
      },
      "geometry": {
        "type": "Point",
        "coordinates": [
          18.782422776689927,
          3.050645436056053
        ]
      }
    },
    {
      "type": "Feature",
      "properties": {
        "norad_id": 66636,
        "name": "STARLINK-35968",
        "group": "last-30-days",
        "lat": 1.5165955004670064,
        "lon": 19.930607335847895,
        "alt_km": 380.86367154322124,
        "timestamp": "2025-12-09T20:37:08.056973+00:00",
        "meta_object_name": "STARLINK-35968",
        "meta_object_id": "2025-271V",
        "meta_epoch": "2025-12-09T14:00:01.999872",
        "meta_mean_motion": 15.63705764,
        "meta_eccentricity": 9.19e-05,
        "meta_inclination": 53.159,
        "meta_ra_of_asc_node": 202.4145,
        "meta_arg_of_pericenter": 109.2159,
        "meta_mean_anomaly": 316.1173,
        "meta_ephemeris_type": 0,
        "meta_classification_type": "U",
        "meta_norad_cat_id": 66636,
        "meta_element_set_no": 999,
        "meta_rev_at_epoch": 373,
        "meta_bstar": -0.023788738,
        "meta_mean_motion_dot": -0.01989687,
        "meta_mean_motion_ddot": 0,
        "tle_line1": "1 66636U 25271V   25343.58335648 -.01989687  00000+0 -23789-1 0  9992",
        "tle_line2": "2 66636  53.1590 202.4145 0000919 109.2159 316.1173 15.63705764  3735"
      },
      "geometry": {
        "type": "Point",
        "coordinates": [
          19.930607335847895,
          1.5165955004670064
        ]
      }
    },
    {
      "type": "Feature",
      "properties": {
        "norad_id": 66637,
        "name": "STARLINK-35953",
        "group": "last-30-days",
        "lat": -0.017248868162080867,
        "lon": 21.077254867106955,
        "alt_km": 381.223815515159,
        "timestamp": "2025-12-09T20:37:08.056984+00:00",
        "meta_object_name": "STARLINK-35953",
        "meta_object_id": "2025-271W",
        "meta_epoch": "2025-12-09T14:00:01.999872",
        "meta_mean_motion": 15.63703982,
        "meta_eccentricity": 8.736e-05,
        "meta_inclination": 53.159,
        "meta_ra_of_asc_node": 202.4108,
        "meta_arg_of_pericenter": 100.7239,
        "meta_mean_anomaly": 326.5266,
        "meta_ephemeris_type": 0,
        "meta_classification_type": "U",
        "meta_norad_cat_id": 66637,
        "meta_element_set_no": 999,
        "meta_rev_at_epoch": 373,
        "meta_bstar": -0.023739732,
        "meta_mean_motion_dot": -0.0198593,
        "meta_mean_motion_ddot": 0,
        "tle_line1": "1 66637U 25271W   25343.58335648 -.01985930  00000+0 -23740-1 0  9997",
        "tle_line2": "2 66637  53.1590 202.4108 0000873 100.7239 326.5266 15.63703982  3737"
      },
      "geometry": {
        "type": "Point",
        "coordinates": [
          21.077254867106955,
          -0.017248868162080867
        ]
      }
    },
    {
      "type": "Feature",
      "properties": {
        "norad_id": 66638,
        "name": "STARLINK-35972",
        "group": "last-30-days",
        "lat": -1.5508192029616408,
        "lon": 22.22371697063635,
        "alt_km": 381.3240907092777,
        "timestamp": "2025-12-09T20:37:08.056994+00:00",
        "meta_object_name": "STARLINK-35972",
        "meta_object_id": "2025-271X",
        "meta_epoch": "2025-12-09T14:00:01.999872",
        "meta_mean_motion": 15.63703953,
        "meta_eccentricity": 9.572e-05,
        "meta_inclination": 53.1592,
        "meta_ra_of_asc_node": 202.4071,
        "meta_arg_of_pericenter": 108.1559,
        "meta_mean_anomaly": 321.0103,
        "meta_ephemeris_type": 0,
        "meta_classification_type": "U",
        "meta_norad_cat_id": 66638,
        "meta_element_set_no": 999,
        "meta_rev_at_epoch": 373,
        "meta_bstar": -0.02373029,
        "meta_mean_motion_dot": -0.01985293,
        "meta_mean_motion_ddot": 0,
        "tle_line1": "1 66638U 25271X   25343.58335648 -.01985293  00000+0 -23730-1 0  9999",
        "tle_line2": "2 66638  53.1592 202.4071 0000957 108.1559 321.0103 15.63703953  3737"
      },
      "geometry": {
        "type": "Point",
        "coordinates": [
          22.22371697063635,
          -1.5508192029616408
        ]
      }
    }
  ]
}